[{"OBJECT_NAME":"STARLINK-35849","OBJECT_ID":"2025-254A","EPOCH":"2026-03-09T18:23:54.251232","MEAN_MOTION":15.30203288,"ECCENTRICITY":0.00011,"INCLINATION":53.1596,"RA_OF_ASC_NODE":232.3706,"ARG_OF_PERICENTER":63.6023,"MEAN_ANOMALY":296.5091,"EPHEMERIS_TYPE":0,"CLASSIFICATION_TYPE":"U","NORAD_CAT_ID":66348,"ELEMENT_SET_NO":999,"REV_AT_EPOCH":2014,"BSTAR":0.0006263072,"MEAN_MOTION_DOT":0.00018238,"MEAN_MOTION_DDOT":0},{"OBJECT_NAME":"OBJECT A","OBJECT_ID":"2025-234A","EPOCH":"2026-03-09T23:03:34.210368","MEAN_MOTION":15.32505956,"ECCENTRICITY":0.00130678,"INCLINATION":97.4388,"RA_OF_ASC_NODE":139.352,"ARG_OF_PERICENTER":148.634,"MEAN_ANOMALY":211.5684,"EPHEMERIS_TYPE":0,"CLASSIFICATION_TYPE":"U","NORAD_CAT_ID":66053,"ELEMENT_SET_NO":999,"REV_AT_EPOCH":2164,"BSTAR":0.0014840662,"MEAN_MOTION_DOT":0.00046856,"MEAN_MOTION_DDOT":0}]
